STARLINK-37396          
1 69256U 26117U   26157.58337963 -.02280997  14840-2 -49879-2 0  9997
2 69256  53.1569 296.6145 0000820  60.4517 136.1238 15.97702233  2538
STARLINK-37508          
1 69257U 26117V   26157.58337963 -.02303813  15177-2 -49616-2 0  9994
2 69257  53.1568 296.6006 0000737  48.0616 155.0475 15.97977842  2457
STARLINK-37276          
1 69258U 26117W   26157.58337963 -.01917029  11261-2 -31922-2 0  9995
2 69258  53.1564 296.5400 0000553  46.2185 185.7283 16.02426797  2450
STARLINK-37518          
1 69259U 26117X   26157.58337963 -.01905220  11121-2 -31857-2 0  9998
2 69259  53.1562 296.5283 0000574  56.3699 181.5315 16.02355403  2469
STARLINK-37478          
1 69260U 26117Y   26157.58337963 -.02042909  12595-2 -35515-2 0  9998
2 69260  53.1564 296.5229 0000596  48.3305 192.2274 16.01706900  2466
STARLINK-37506          
1 69261U 26117Z   26157.58337963 -.02082093  13072-2 -36053-2 0  9996
2 69261  53.1559 296.5136 0000547  49.4370 195.4917 16.01778085  2460
STARLINK-37503          
1 69262U 26117AA  26157.58337963 -.02132760  13690-2 -36923-2 0  9996
2 69262  53.1562 296.5011 0000535  50.2387 200.3590 16.01785826  2466
STARLINK-37502          
1 69263U 26117AB  26157.58337963 -.02091663  13143-2 -36802-2 0  9992
2 69263  53.1561 296.4946 0000614  46.4054 207.1006 16.01505586  2468
STARLINK-37486          
1 69264U 26117AC  26157.58337963 -.02094641  13186-2 -36764-2 0  9996
2 69264  53.1558 296.4832 0000543  44.5806 214.6273 16.01548266  2465
STARLINK-37435          
1 69265U 26117AD  26157.58337963 -.02095724  13283-2 -35680-2 0  9994
2 69265  53.1558 296.4655 0000591  53.5789 213.5853 16.02067640  2467
STARLINK-37464          
1 69266U 26117AE  26157.58337963 -.02059855  12923-2 -34128-2 0  9996
2 69266  53.1558 296.4482 0000518  62.1023 213.3616 16.02526153  2466
KUIPER-00282            
1 69267U 26118A   26157.58337963  .00000215  00000+0  17425-4 0  9993
2 69267  51.8575 104.6536 0011723 144.1336  78.9189 15.35091585  1728
KUIPER-00383            
1 69268U 26118B   26157.58337963 -.00005619  00000+0 -14842-3 0  9998
2 69268  51.8580 104.6296 0010991 142.2763  92.6101 15.35641962  1780
KUIPER-00527            
1 69269U 26118C   26157.58337963  .00003780  00000+0  11679-3 0  9999
2 69269  51.8606 104.6104 0009802 138.4423 105.8718 15.36041228  1306
KUIPER-00562            
1 69270U 26118D   26157.58337963  .00009686  00000+0  26184-3 0  9999
2 69270  51.8717 104.4744 0001988  86.6524 218.0108 15.38388403  2315
KUIPER-00570            
1 69271U 26118E   26157.58337963  .00001744  00000+0  60630-4 0  9992
2 69271  51.8566 104.6294 0011237 146.5527  88.3971 15.35578311  1903
KUIPER-00572            
1 69272U 26118F   26157.58337963  .00003021  00000+0  93469-4 0  9999
2 69272  51.8665 104.5767 0007411 133.4893 126.7370 15.36756539  1651
KUIPER-00581            
1 69273U 26118G   26157.58337963  .00004982  00000+0  14862-3 0  9996
2 69273  51.8644 104.5954 0008984 137.3820 114.1304 15.36431350  2443
KUIPER-00584            
1 69274U 26118H   26157.58337963  .00001467  00000+0  53296-4 0  9997
2 69274  51.8592 104.6457 0011162 150.6878  76.2725 15.35247083  1304
KUIPER-00587            
1 69275U 26118J   26157.58337963  .00003834  00000+0  11698-3 0  9997
2 69275  51.8618 104.5895 0008443 138.8838 115.7938 15.36406549  1301
KUIPER-00590            
1 69276U 26118K   26157.58337963  .00005866  00000+0  16664-3 0  9993
2 69276  51.8681 104.5264 0004503 120.6354 163.6700 15.37636239  2208
KUIPER-00592            
1 69277U 26118L   26157.58337963  .00007405  00000+0  20622-3 0  9994
2 69277  51.8701 104.5119 0003845  98.2691 191.6829 15.37842155  1302
KUIPER-00593            
1 69278U 26118M   26157.58337963  .00006197  00000+0  17477-3 0  9996
2 69278  51.8708 104.5116 0004193 116.6719 172.6728 15.37758017  2413
KUIPER-00594            
1 69279U 26118N   26157.58337963  .00009887  00000+0  26523-3 0  9998
2 69279  51.8716 104.4674 0001285  55.1886 254.8741 15.38599318  1305
KUIPER-00595            
1 69280U 26118P   26157.58337963  .00008097  00000+0  22160-3 0  9995
2 69280  51.8708 104.4846 0002067 100.8429 202.0461 15.38247134  2388
KUIPER-00596            
1 69281U 26118Q   26157.58337963  .00001055  00000+0  41056-4 0  9999
2 69281  51.8541 104.6392 0012002 146.1191  83.5104 15.35581527  1650
KUIPER-00597            
1 69282U 26118R   26157.58337963  .00008380  00000+0  23838-3 0  9995
2 69282  51.8641 104.5632 0007106 133.9292 133.4852 15.36978238  1300
KUIPER-00599            
1 69283U 26118S   26157.58337963  .00005557  00000+0  16098-3 0  9999
2 69283  51.8683 104.5527 0006298 126.6278 144.6333 15.37128836  1450
KUIPER-00600            
1 69284U 26118T   26157.58337963  .00004289  00000+0  12913-3 0  9993
2 69284  51.8632 104.5866 0009090 133.0563 122.9282 15.36516078  2230
KUIPER-00601            
1 69285U 26118U   26157.58337963  .00005610  00000+0  16081-3 0  9993
2 69285  51.8698 104.5349 0004995 119.1744 159.8711 15.37447648  2260
