OBJECT_NAME,OBJECT_ID,EPOCH,MEAN_MOTION,ECCENTRICITY,INCLINATION,RA_OF_ASC_NODE,ARG_OF_PERICENTER,MEAN_ANOMALY,EPHEMERIS_TYPE,CLASSIFICATION_TYPE,NORAD_CAT_ID,ELEMENT_SET_NO,REV_AT_EPOCH,BSTAR,MEAN_MOTION_DOT,MEAN_MOTION_DDOT
STARLINK-37396,2026-117U,2026-06-06T14:00:04.000032,15.97702233,.00008204,53.1569,296.6145,60.4517,136.1238,0,U,69256,999,253,-.49879253E-2,-.2280997E-1,.14839817E-2
STARLINK-37508,2026-117V,2026-06-06T14:00:04.000032,15.97977842,.00007373,53.1568,296.6006,48.0616,155.0475,0,U,69257,999,245,-.49615686E-2,-.2303813E-1,.15176501E-2
STARLINK-37276,2026-117W,2026-06-06T14:00:04.000032,16.02426797,.0000553,53.1564,296.5400,46.2185,185.7283,0,U,69258,999,245,-.31922417E-2,-.1917029E-1,.11261123E-2
STARLINK-37518,2026-117X,2026-06-06T14:00:04.000032,16.02355403,.00005747,53.1562,296.5283,56.3699,181.5315,0,U,69259,999,246,-.31857197E-2,-.190522E-1,.1112119E-2
STARLINK-37478,2026-117Y,2026-06-06T14:00:04.000032,16.01706900,.00005961,53.1564,296.5229,48.3305,192.2274,0,U,69260,999,246,-.35515068E-2,-.2042909E-1,.12595383E-2
STARLINK-37506,2026-117Z,2026-06-06T14:00:04.000032,16.01778085,.00005479,53.1559,296.5136,49.4370,195.4917,0,U,69261,999,246,-.36053361E-2,-.2082093E-1,.13071718E-2
STARLINK-37503,2026-117AA,2026-06-06T14:00:04.000032,16.01785826,.00005359,53.1562,296.5011,50.2387,200.3590,0,U,69262,999,246,-.36923059E-2,-.213276E-1,.13689557E-2
STARLINK-37502,2026-117AB,2026-06-06T14:00:04.000032,16.01505586,.00006148,53.1561,296.4946,46.4054,207.1006,0,U,69263,999,246,-.36802142E-2,-.2091663E-1,.13143491E-2
STARLINK-37486,2026-117AC,2026-06-06T14:00:04.000032,16.01548266,.00005437,53.1558,296.4832,44.5806,214.6273,0,U,69264,999,246,-.36763583E-2,-.2094641E-1,.13186108E-2
STARLINK-37435,2026-117AD,2026-06-06T14:00:04.000032,16.02067640,.00005917,53.1558,296.4655,53.5789,213.5853,0,U,69265,999,246,-.35680455E-2,-.2095724E-1,.13282702E-2
STARLINK-37464,2026-117AE,2026-06-06T14:00:04.000032,16.02526153,.00005185,53.1558,296.4482,62.1023,213.3616,0,U,69266,999,246,-.34128464E-2,-.2059855E-1,.12923235E-2
KUIPER-00282,2026-118A,2026-06-06T14:00:04.000032,15.35091585,.00117232,51.8575,104.6536,144.1336,78.9189,0,U,69267,999,172,.17425334E-4,.215E-5,0
KUIPER-00383,2026-118B,2026-06-06T14:00:04.000032,15.35641962,.00109916,51.8580,104.6296,142.2763,92.6101,0,U,69268,999,178,-.14841932E-3,-.5619E-4,0
KUIPER-00527,2026-118C,2026-06-06T14:00:04.000032,15.36041228,.00098023,51.8606,104.6104,138.4423,105.8718,0,U,69269,999,130,.11678502E-3,.378E-4,0
KUIPER-00562,2026-118D,2026-06-06T14:00:04.000032,15.38388403,.00019883,51.8717,104.4744,86.6524,218.0108,0,U,69270,999,231,.26183913E-3,.9686E-4,0
KUIPER-00570,2026-118E,2026-06-06T14:00:04.000032,15.35578311,.00112373,51.8566,104.6294,146.5527,88.3971,0,U,69271,999,190,.60629739E-4,.1744E-4,0
KUIPER-00572,2026-118F,2026-06-06T14:00:04.000032,15.36756539,.00074117,51.8665,104.5767,133.4893,126.7370,0,U,69272,999,165,.9346911E-4,.3021E-4,0
KUIPER-00581,2026-118G,2026-06-06T14:00:04.000032,15.36431350,.00089842,51.8644,104.5954,137.3820,114.1304,0,U,69273,999,244,.14861797E-3,.4982E-4,0
KUIPER-00584,2026-118H,2026-06-06T14:00:04.000032,15.35247083,.00111628,51.8592,104.6457,150.6878,76.2725,0,U,69274,999,130,.53296298E-4,.1467E-4,0
KUIPER-00587,2026-118J,2026-06-06T14:00:04.000032,15.36406549,.00084436,51.8618,104.5895,138.8838,115.7938,0,U,69275,999,130,.11698222E-3,.3834E-4,0
KUIPER-00590,2026-118K,2026-06-06T14:00:04.000032,15.37636239,.0004503,51.8681,104.5264,120.6354,163.6700,0,U,69276,999,220,.16664185E-3,.5866E-4,0
KUIPER-00592,2026-118L,2026-06-06T14:00:04.000032,15.37842155,.00038459,51.8701,104.5119,98.2691,191.6829,0,U,69277,999,130,.20621819E-3,.7405E-4,0
KUIPER-00593,2026-118M,2026-06-06T14:00:04.000032,15.37758017,.0004193,51.8708,104.5116,116.6719,172.6728,0,U,69278,999,241,.17477375E-3,.6197E-4,0
KUIPER-00594,2026-118N,2026-06-06T14:00:04.000032,15.38599318,.0001285,51.8716,104.4674,55.1886,254.8741,0,U,69279,999,130,.2652305E-3,.9887E-4,0
KUIPER-00595,2026-118P,2026-06-06T14:00:04.000032,15.38247134,.00020675,51.8708,104.4846,100.8429,202.0461,0,U,69280,999,238,.22160421E-3,.8097E-4,0
KUIPER-00596,2026-118Q,2026-06-06T14:00:04.000032,15.35581527,.00120028,51.8541,104.6392,146.1191,83.5104,0,U,69281,999,165,.41055983E-4,.1055E-4,0
KUIPER-00597,2026-118R,2026-06-06T14:00:04.000032,15.36978238,.00071063,51.8641,104.5632,133.9292,133.4852,0,U,69282,999,130,.23837905E-3,.838E-4,0
KUIPER-00599,2026-118S,2026-06-06T14:00:04.000032,15.37128836,.00062985,51.8683,104.5527,126.6278,144.6333,0,U,69283,999,145,.16097797E-3,.5557E-4,0
KUIPER-00600,2026-118T,2026-06-06T14:00:04.000032,15.36516078,.00090901,51.8632,104.5866,133.0563,122.9282,0,U,69284,999,223,.12913229E-3,.4289E-4,0
KUIPER-00601,2026-118U,2026-06-06T14:00:04.000032,15.37447648,.00049953,51.8698,104.5349,119.1744,159.8711,0,U,69285,999,226,.16080658E-3,.561E-4,0
